{"fetchedAt":"2026-06-29T18:07:57.361Z","satellites":[{"id":"63724","name":"KUIPER-00008","constellationId":"kuiper","omm":{"OBJECT_NAME":"KUIPER-00008","OBJECT_ID":"2025-088A","EPOCH":"2026-06-28T19:44:32.496576","MEAN_MOTION":14.79925419,"ECCENTRICITY":0.00006202,"INCLINATION":51.9002,"RA_OF_ASC_NODE":316.5782,"ARG_OF_PERICENTER":104.7989,"MEAN_ANOMALY":255.3042,"EPHEMERIS_TYPE":0,"CLASSIFICATION_TYPE":"U","NORAD_CAT_ID":63724,"ELEMENT_SET_NO":999,"REV_AT_EPOCH":6450,"BSTAR":-0.00010028443,"MEAN_MOTION_DOT":-0.00000985,"MEAN_MOTION_DDOT":0}},{"id":"63725","name":"KUIPER-00009","constellationId":"kuiper","omm":{"OBJECT_NAME":"KUIPER-00009","OBJECT_ID":"2025-088B","EPOCH":"2026-06-28T20:06:12.942720","MEAN_MOTION":14.80006424,"ECCENTRICITY":0.00004537,"INCLINATION":51.9031,"RA_OF_ASC_NODE":334.1414,"ARG_OF_PERICENTER":88.6721,"MEAN_ANOMALY":271.4294,"EPHEMERIS_TYPE":0,"CLASSIFICATION_TYPE":"U","NORAD_CAT_ID":63725,"ELEMENT_SET_NO":999,"REV_AT_EPOCH":6425,"BSTAR":0.0018281257,"MEAN_MOTION_DOT":0.00013768,"MEAN_MOTION_DDOT":0}},{"id":"63726","name":"KUIPER-00010","constellationId":"kuiper","omm":{"OBJECT_NAME":"KUIPER-00010","OBJECT_ID":"2025-088C","EPOCH":"2026-06-29T12:53:22.479072","MEAN_MOTION":14.79931481,"ECCENTRICITY":0.0000699,"INCLINATION":51.9011,"RA_OF_ASC_NODE":308.5196,"ARG_OF_PERICENTER":103.0287,"MEAN_ANOMALY":257.0754,"EPHEMERIS_TYPE":0,"CLASSIFICATION_TYPE":"U","NORAD_CAT_ID":63726,"ELEMENT_SET_NO":999,"REV_AT_EPOCH":6429,"BSTAR":-0.0000095331,"MEAN_MOTION_DOT":-0.00000294,"MEAN_MOTION_DDOT":0}},{"id":"63727","name":"KUIPER-00011","constellationId":"kuiper","omm":{"OBJECT_NAME":"KUIPER-00011","OBJECT_ID":"2025-088D","EPOCH":"2026-06-28T19:40:41.289312","MEAN_MOTION":14.79934611,"ECCENTRICITY":0.00006514,"INCLINATION":51.9017,"RA_OF_ASC_NODE":319.242,"ARG_OF_PERICENTER":103.7141,"MEAN_ANOMALY":256.3894,"EPHEMERIS_TYPE":0,"CLASSIFICATION_TYPE":"U","NORAD_CAT_ID":63727,"ELEMENT_SET_NO":999,"REV_AT_EPOCH":6421,"BSTAR":0.0000853008,"MEAN_MOTION_DOT":0.00000429,"MEAN_MOTION_DDOT":0}},{"id":"63728","name":"KUIPER-00012","constellationId":"kuiper","omm":{"OBJECT_NAME":"KUIPER-00012","OBJECT_ID":"2025-088E","EPOCH":"2026-06-29T13:05:02.111712","MEAN_MOTION":14.79923736,"ECCENTRICITY":0.0000642,"INCLINATION":51.903,"RA_OF_ASC_NODE":300.9674,"ARG_OF_PERICENTER":114.8625,"MEAN_ANOMALY":245.2405,"EPHEMERIS_TYPE":0,"CLASSIFICATION_TYPE":"U","NORAD_CAT_ID":63728,"ELEMENT_SET_NO":999,"REV_AT_EPOCH":6448,"BSTAR":0.000027746,"MEAN_MOTION_DOT":-1e-7,"MEAN_MOTION_DDOT":0}},{"id":"63729","name":"KUIPER-00013","constellationId":"kuiper","omm":{"OBJECT_NAME":"KUIPER-00013","OBJECT_ID":"2025-088F","EPOCH":"2026-06-28T20:50:41.962272","MEAN_MOTION":14.7995067,"ECCENTRICITY":0.00005638,"INCLINATION":51.9034,"RA_OF_ASC_NODE":336.4781,"ARG_OF_PERICENTER":117.7314,"MEAN_ANOMALY":242.3706,"EPHEMERIS_TYPE":0,"CLASSIFICATION_TYPE":"U","NORAD_CAT_ID":63729,"ELEMENT_SET_NO":999,"REV_AT_EPOCH":6403,"BSTAR":0.00021531348,"MEAN_MOTION_DOT":0.00001421,"MEAN_MOTION_DDOT":0}},{"id":"63730","name":"KUIPER-00014","constellationId":"kuiper","omm":{"OBJECT_NAME":"KUIPER-00014","OBJECT_ID":"2025-088G","EPOCH":"2026-06-28T20:02:06.637920","MEAN_MOTION":14.79928758,"ECCENTRICITY":0.0000626,"INCLINATION":51.9024,"RA_OF_ASC_NODE":336.5712,"ARG_OF_PERICENTER":125.3115,"MEAN_ANOMALY":234.7906,"EPHEMERIS_TYPE":0,"CLASSIFICATION_TYPE":"U","NORAD_CAT_ID":63730,"ELEMENT_SET_NO":999,"REV_AT_EPOCH":6384,"BSTAR":0.000030357748,"MEAN_MOTION_DOT":1e-7,"MEAN_MOTION_DDOT":0}},{"id":"63731","name":"KUIPER-00015","constellationId":"kuiper","omm":{"OBJECT_NAME":"KUIPER-00015","OBJECT_ID":"2025-088H","EPOCH":"2026-06-28T17:20:43.714752","MEAN_MOTION":14.79921974,"ECCENTRICITY":0.00006573,"INCLINATION":51.9001,"RA_OF_ASC_NODE":347.1321,"ARG_OF_PERICENTER":102.2034,"MEAN_ANOMALY":257.9002,"EPHEMERIS_TYPE":0,"CLASSIFICATION_TYPE":"U","NORAD_CAT_ID":63731,"ELEMENT_SET_NO":999,"REV_AT_EPOCH":6414,"BSTAR":0.000004383977,"MEAN_MOTION_DOT":-0.00000188,"MEAN_MOTION_DDOT":0}},{"id":"63732","name":"KUIPER-00016","constellationId":"kuiper","omm":{"OBJECT_NAME":"KUIPER-00016","OBJECT_ID":"2025-088J","EPOCH":"2026-06-28T19:58:12.778176","MEAN_MOTION":14.79932757,"ECCENTRICITY":0.00004885,"INCLINATION":51.8996,"RA_OF_ASC_NODE":339.0976,"ARG_OF_PERICENTER":101.4061,"MEAN_ANOMALY":258.6957,"EPHEMERIS_TYPE":0,"CLASSIFICATION_TYPE":"U","NORAD_CAT_ID":63732,"ELEMENT_SET_NO":999,"REV_AT_EPOCH":6380,"BSTAR":0.00031889773,"MEAN_MOTION_DOT":0.00002211,"MEAN_MOTION_DDOT":0}},{"id":"63733","name":"KUIPER-00018","constellationId":"kuiper","omm":{"OBJECT_NAME":"KUIPER-00018","OBJECT_ID":"2025-088K","EPOCH":"2026-06-29T13:14:48.942240","MEAN_MOTION":14.79931681,"ECCENTRICITY":0.000055,"INCLINATION":51.9061,"RA_OF_ASC_NODE":325.9419,"ARG_OF_PERICENTER":106.5681,"MEAN_ANOMALY":253.5341,"EPHEMERIS_TYPE":0,"CLASSIFICATION_TYPE":"U","NORAD_CAT_ID":63733,"ELEMENT_SET_NO":999,"REV_AT_EPOCH":6405,"BSTAR":0.000053755,"MEAN_MOTION_DOT":0.00000189,"MEAN_MOTION_DDOT":0}},{"id":"63734","name":"KUIPER-00019","constellationId":"kuiper","omm":{"OBJECT_NAME":"KUIPER-00019","OBJECT_ID":"2025-088L","EPOCH":"2026-06-28T20:03:28.683360","MEAN_MOTION":14.79960909,"ECCENTRICITY":0.0000539,"INCLINATION":51.902,"RA_OF_ASC_NODE":327.8712,"ARG_OF_PERICENTER":114.3243,"MEAN_ANOMALY":245.7776,"EPHEMERIS_TYPE":0,"CLASSIFICATION_TYPE":"U","NORAD_CAT_ID":63734,"ELEMENT_SET_NO":999,"REV_AT_EPOCH":6396,"BSTAR":0.00024184107,"MEAN_MOTION_DOT":0.00001624,"MEAN_MOTION_DDOT":0}},{"id":"63735","name":"KUIPER-00020","constellationId":"kuiper","omm":{"OBJECT_NAME":"KUIPER-00020","OBJECT_ID":"2025-088M","EPOCH":"2026-06-28T19:21:15.366240","MEAN_MOTION":14.79926976,"ECCENTRICITY":0.00006935,"INCLINATION":51.9023,"RA_OF_ASC_NODE":331.7455,"ARG_OF_PERICENTER":112.0979,"MEAN_ANOMALY":248.0057,"EPHEMERIS_TYPE":0,"CLASSIFICATION_TYPE":"U","NORAD_CAT_ID":63735,"ELEMENT_SET_NO":999,"REV_AT_EPOCH":6411,"BSTAR":-0.00016650576,"MEAN_MOTION_DOT":-0.0000149,"MEAN_MOTION_DDOT":0}},{"id":"63736","name":"KUIPER-00021","constellationId":"kuiper","omm":{"OBJECT_NAME":"KUIPER-00021","OBJECT_ID":"2025-088N","EPOCH":"2026-06-28T20:09:52.702848","MEAN_MOTION":14.79925131,"ECCENTRICITY":0.00006927,"INCLINATION":51.9018,"RA_OF_ASC_NODE":331.5528,"ARG_OF_PERICENTER":112.9362,"MEAN_ANOMALY":247.1673,"EPHEMERIS_TYPE":0,"CLASSIFICATION_TYPE":"U","NORAD_CAT_ID":63736,"ELEMENT_SET_NO":999,"REV_AT_EPOCH":6395,"BSTAR":-0.000013411352,"MEAN_MOTION_DOT":-0.00000323,"MEAN_MOTION_DDOT":0}},{"id":"63737","name":"KUIPER-00023","constellationId":"kuiper","omm":{"OBJECT_NAME":"KUIPER-00023","OBJECT_ID":"2025-088P","EPOCH":"2026-06-28T20:54:36.044928","MEAN_MOTION":14.79924941,"ECCENTRICITY":0.00006686,"INCLINATION":51.9016,"RA_OF_ASC_NODE":333.9037,"ARG_OF_PERICENTER":103.5135,"MEAN_ANOMALY":256.5902,"EPHEMERIS_TYPE":0,"CLASSIFICATION_TYPE":"U","NORAD_CAT_ID":63737,"ELEMENT_SET_NO":999,"REV_AT_EPOCH":6422,"BSTAR":0.000033683666,"MEAN_MOTION_DOT":3.6e-7,"MEAN_MOTION_DDOT":0}},{"id":"63738","name":"KUIPER-00024","constellationId":"kuiper","omm":{"OBJECT_NAME":"KUIPER-00024","OBJECT_ID":"2025-088Q","EPOCH":"2026-06-28T19:36:47.721600","MEAN_MOTION":14.79935905,"ECCENTRICITY":0.00007045,"INCLINATION":51.9065,"RA_OF_ASC_NODE":321.7363,"ARG_OF_PERICENTER":121.3036,"MEAN_ANOMALY":238.7996,"EPHEMERIS_TYPE":0,"CLASSIFICATION_TYPE":"U","NORAD_CAT_ID":63738,"ELEMENT_SET_NO":999,"REV_AT_EPOCH":6451,"BSTAR":-0.00039054235,"MEAN_MOTION_DOT":-0.00003197,"MEAN_MOTION_DDOT":0}}]}