[
  {
    "name": "KUIPER-00008",
    "noradId": "63724",
    "line1": "1 63724U 25088A   26179.82259834 -.00000985  00000+0 -10028-3 0  9998",
    "line2": "2 63724  51.9002 316.5782 0000620 104.7989 255.3042 14.79925419 64506"
  },
  {
    "name": "KUIPER-00009",
    "noradId": "63725",
    "line1": "1 63725U 25088B   26179.83764980  .00013768  00000+0  18281-2 0  9992",
    "line2": "2 63725  51.9031 334.1414 0000453  88.6721 271.4294 14.80006424 64253"
  },
  {
    "name": "KUIPER-00010",
    "noradId": "63726",
    "line1": "1 63726U 25088C   26180.53706573 -.00000294  00000+0 -95331-5 0  9992",
    "line2": "2 63726  51.9011 308.5196 0000699 103.0287 257.0754 14.79931481 64298"
  },
  {
    "name": "KUIPER-00011",
    "noradId": "63727",
    "line1": "1 63727U 25088D   26179.81992233  .00000429  00000+0  85301-4 0  9995",
    "line2": "2 63727  51.9017 319.2420 0000651 103.7141 256.3894 14.79934611 64215"
  },
  {
    "name": "KUIPER-00012",
    "noradId": "63728",
    "line1": "1 63728U 25088E   26180.54516333 -.00000010  00000+0  27746-4 0  9997",
    "line2": "2 63728  51.9030 300.9674 0000642 114.8625 245.2405 14.79923736 64489"
  },
  {
    "name": "KUIPER-00013",
    "noradId": "63729",
    "line1": "1 63729U 25088F   26179.86854123  .00001421  00000+0  21531-3 0  9994",
    "line2": "2 63729  51.9034 336.4781 0000563 117.7314 242.3706 14.79950670 64036"
  },
  {
    "name": "KUIPER-00014",
    "noradId": "63730",
    "line1": "1 63730U 25088G   26179.83479905  .00000010  00000+0  30358-4 0  9995",
    "line2": "2 63730  51.9024 336.5712 0000626 125.3115 234.7906 14.79928758 63843"
  },
  {
    "name": "KUIPER-00015",
    "noradId": "63731",
    "line1": "1 63731U 25088H   26179.72272818 -.00000188  00000+0  43840-5 0  9996",
    "line2": "2 63731  51.9001 347.1321 0000657 102.2034 257.9002 14.79921974 64142"
  },
  {
    "name": "KUIPER-00016",
    "noradId": "63732",
    "line1": "1 63732U 25088J   26179.83209234  .00002211  00000+0  31890-3 0  9999",
    "line2": "2 63732  51.8996 339.0976 0000488 101.4061 258.6957 14.79932757 63804"
  },
  {
    "name": "KUIPER-00018",
    "noradId": "63733",
    "line1": "1 63733U 25088K   26180.55195535  .00000189  00000+0  53755-4 0  9996",
    "line2": "2 63733  51.9061 325.9419 0000550 106.5681 253.5341 14.79931681 64053"
  },
  {
    "name": "KUIPER-00019",
    "noradId": "63734",
    "line1": "1 63734U 25088L   26179.83574865  .00001624  00000+0  24184-3 0  9991",
    "line2": "2 63734  51.9020 327.8712 0000539 114.3243 245.7776 14.79960909 63963"
  },
  {
    "name": "KUIPER-00020",
    "noradId": "63735",
    "line1": "1 63735U 25088M   26179.80642785 -.00001490  00000+0 -16651-3 0  9999",
    "line2": "2 63735  51.9023 331.7455 0000693 112.0979 248.0057 14.79926976 64119"
  },
  {
    "name": "KUIPER-00021",
    "noradId": "63736",
    "line1": "1 63736U 25088N   26179.84019332 -.00000323  00000+0 -13411-4 0  9996",
    "line2": "2 63736  51.9018 331.5528 0000692 112.9362 247.1673 14.79925131 63954"
  },
  {
    "name": "KUIPER-00023",
    "noradId": "63737",
    "line1": "1 63737U 25088P   26179.87125052  .00000036  00000+0  33684-4 0  9990",
    "line2": "2 63737  51.9016 333.9037 0000668 103.5135 256.5902 14.79924941 64229"
  },
  {
    "name": "KUIPER-00024",
    "noradId": "63738",
    "line1": "1 63738U 25088Q   26179.81721900 -.00003197  00000+0 -39054-3 0  9998",
    "line2": "2 63738  51.9065 321.7363 0000704 121.3036 238.7996 14.79935905 64519"
  }
]